[{"OBJECT_NAME":"STARLINK-35073","OBJECT_ID":"2025-191G","EPOCH":"2026-03-09T15:33:17.880768","MEAN_MOTION":15.05647111,"ECCENTRICITY":0.0002493,"INCLINATION":97.6029,"RA_OF_ASC_NODE":301.4921,"ARG_OF_PERICENTER":90.8695,"MEAN_ANOMALY":269.2817,"EPHEMERIS_TYPE":0,"CLASSIFICATION_TYPE":"U","NORAD_CAT_ID":65385,"ELEMENT_SET_NO":999,"REV_AT_EPOCH":3026,"BSTAR":0.00013482,"MEAN_MOTION_DOT":1.885e-5,"MEAN_MOTION_DDOT":0},{"OBJECT_NAME":"PEGASUS DEB","OBJECT_ID":"1994-029AEX","EPOCH":"2026-03-09T10:21:12.559968","MEAN_MOTION":14.69785081,"ECCENTRICITY":0.01957394,"INCLINATION":81.9702,"RA_OF_ASC_NODE":117.9188,"ARG_OF_PERICENTER":51.5385,"MEAN_ANOMALY":310.3202,"EPHEMERIS_TYPE":0,"CLASSIFICATION_TYPE":"U","NORAD_CAT_ID":39312,"ELEMENT_SET_NO":999,"REV_AT_EPOCH":67444,"BSTAR":0.0006881266,"MEAN_MOTION_DOT":5.551e-5,"MEAN_MOTION_DDOT":0}]
